CCSDS_OMM_VERS = 2.0
CREATION_DATE  = 
ORIGINATOR     = 

OBJECT_NAME    = SL-3 R/B
OBJECT_ID      = 1982-079B
CENTER_NAME    = EARTH
REF_FRAME      = TEME
TIME_SYSTEM    = UTC
MEAN_ELEMENT_THEORY = SGP/SGP4

EPOCH          = 2025-11-25T01:52:37.689600
MEAN_MOTION    = 15.23304200
ECCENTRICITY   = .002613
INCLINATION    = 81.1462
RA_OF_ASC_NODE = 316.4767
ARG_OF_PERICENTER = 156.2717
MEAN_ANOMALY   = 203.9727

EPHEMERIS_TYPE = 0
CLASSIFICATION_TYPE = U
NORAD_CAT_ID   = 13403
ELEMENT_SET_NO = 999
REV_AT_EPOCH   = 36176
BSTAR          = .26853E-3
MEAN_MOTION_DOT = .6457E-4
MEAN_MOTION_DDOT = 0

CCSDS_OMM_VERS = 2.0
CREATION_DATE  = 
ORIGINATOR     = 

OBJECT_NAME    = SL-14 R/B
OBJECT_ID      = 1982-092B
CENTER_NAME    = EARTH
REF_FRAME      = TEME
TIME_SYSTEM    = UTC
MEAN_ELEMENT_THEORY = SGP/SGP4

EPOCH          = 2025-11-25T00:50:52.410048
MEAN_MOTION    = 14.86528115
ECCENTRICITY   = .0018879
INCLINATION    = 82.5690
RA_OF_ASC_NODE = 239.2673
ARG_OF_PERICENTER = 290.4298
MEAN_ANOMALY   = 80.0232

EPHEMERIS_TYPE = 0
CLASSIFICATION_TYPE = U
NORAD_CAT_ID   = 13553
ELEMENT_SET_NO = 999
REV_AT_EPOCH   = 31338
BSTAR          = .77943E-4
MEAN_MOTION_DOT = .716E-5
MEAN_MOTION_DDOT = 0

CCSDS_OMM_VERS = 2.0
CREATION_DATE  = 
ORIGINATOR     = 

OBJECT_NAME    = SL-3 R/B
OBJECT_ID      = 1983-010B
CENTER_NAME    = EARTH
REF_FRAME      = TEME
TIME_SYSTEM    = UTC
MEAN_ELEMENT_THEORY = SGP/SGP4

EPOCH          = 2025-11-24T22:33:13.600800
MEAN_MOTION    = 15.42798615
ECCENTRICITY   = .0018022
INCLINATION    = 81.1028
RA_OF_ASC_NODE = 130.3345
ARG_OF_PERICENTER = 52.7597
MEAN_ANOMALY   = 307.5287

EPHEMERIS_TYPE = 0
CLASSIFICATION_TYPE = U
NORAD_CAT_ID   = 13819
ELEMENT_SET_NO = 999
REV_AT_EPOCH   = 34177
BSTAR          = .38318E-3
MEAN_MOTION_DOT = .16913E-3
MEAN_MOTION_DDOT = 0

CCSDS_OMM_VERS = 2.0
CREATION_DATE  = 
ORIGINATOR     = 

OBJECT_NAME    = SL-3 R/B
OBJECT_ID      = 1983-075B
CENTER_NAME    = EARTH
REF_FRAME      = TEME
TIME_SYSTEM    = UTC
MEAN_ELEMENT_THEORY = SGP/SGP4

EPOCH          = 2025-11-25T01:35:03.289056
MEAN_MOTION    = 15.35633233
ECCENTRICITY   = .0021055
INCLINATION    = 97.6106
RA_OF_ASC_NODE = 324.9632
ARG_OF_PERICENTER = 241.3528
MEAN_ANOMALY   = 118.5598

EPHEMERIS_TYPE = 0
CLASSIFICATION_TYPE = U
NORAD_CAT_ID   = 14208
ELEMENT_SET_NO = 999
REV_AT_EPOCH   = 31408
BSTAR          = .37484E-3
MEAN_MOTION_DOT = .13001E-3
MEAN_MOTION_DDOT = 0

CCSDS_OMM_VERS = 2.0
CREATION_DATE  = 
ORIGINATOR     = 

OBJECT_NAME    = COSMOS 1536
OBJECT_ID      = 1984-013A
CENTER_NAME    = EARTH
REF_FRAME      = TEME
TIME_SYSTEM    = UTC
MEAN_ELEMENT_THEORY = SGP/SGP4

EPOCH          = 2025-11-25T03:00:22.578048
MEAN_MOTION    = 15.22243165
ECCENTRICITY   = .0013422
INCLINATION    = 82.5463
RA_OF_ASC_NODE = 211.6273
ARG_OF_PERICENTER = 295.0767
MEAN_ANOMALY   = 64.9076

EPHEMERIS_TYPE = 0
CLASSIFICATION_TYPE = U
NORAD_CAT_ID   = 14699
ELEMENT_SET_NO = 999
REV_AT_EPOCH   = 25670
BSTAR          = .32642E-3
MEAN_MOTION_DOT = .7554E-4
MEAN_MOTION_DDOT = 0

CCSDS_OMM_VERS = 2.0
CREATION_DATE  = 
ORIGINATOR     = 

OBJECT_NAME    = SL-14 R/B
OBJECT_ID      = 1984-027B
CENTER_NAME    = EARTH
REF_FRAME      = TEME
TIME_SYSTEM    = UTC
MEAN_ELEMENT_THEORY = SGP/SGP4

EPOCH          = 2025-11-25T02:43:47.989632
MEAN_MOTION    = 14.85846706
ECCENTRICITY   = .0016977
INCLINATION    = 82.5413
RA_OF_ASC_NODE = 343.0875
ARG_OF_PERICENTER = 324.1126
MEAN_ANOMALY   = 35.8948

EPHEMERIS_TYPE = 0
CLASSIFICATION_TYPE = U
NORAD_CAT_ID   = 14820
ELEMENT_SET_NO = 999
REV_AT_EPOCH   = 23210
BSTAR          = .67792E-4
MEAN_MOTION_DOT = .615E-5
MEAN_MOTION_DDOT = 0

CCSDS_OMM_VERS = 2.0
CREATION_DATE  = 
ORIGINATOR     = 

OBJECT_NAME    = SL-8 R/B
OBJECT_ID      = 1985-006B
CENTER_NAME    = EARTH
REF_FRAME      = TEME
TIME_SYSTEM    = UTC
MEAN_ELEMENT_THEORY = SGP/SGP4

EPOCH          = 2025-11-25T02:22:16.624128
MEAN_MOTION    = 14.37705265
ECCENTRICITY   = .0017951
INCLINATION    = 74.0452
RA_OF_ASC_NODE = 93.5895
ARG_OF_PERICENTER = 31.1331
MEAN_ANOMALY   = 141.3384

EPHEMERIS_TYPE = 0
CLASSIFICATION_TYPE = U
NORAD_CAT_ID   = 15483
ELEMENT_SET_NO = 999
REV_AT_EPOCH   = 13899
BSTAR          = .13474E-3
MEAN_MOTION_DOT = .38E-5
MEAN_MOTION_DDOT = 0

CCSDS_OMM_VERS = 2.0
CREATION_DATE  = 
ORIGINATOR     = 

OBJECT_NAME    = SL-12 R/B(2)
OBJECT_ID      = 1985-042D
CENTER_NAME    = EARTH
REF_FRAME      = TEME
TIME_SYSTEM    = UTC
MEAN_ELEMENT_THEORY = SGP/SGP4

EPOCH          = 2025-11-25T02:09:19.703232
MEAN_MOTION    = 14.21943370
ECCENTRICITY   = .0037592
INCLINATION    = 71.1077
RA_OF_ASC_NODE = 308.7077
ARG_OF_PERICENTER = 287.4150
MEAN_ANOMALY   = 139.3449

EPHEMERIS_TYPE = 0
CLASSIFICATION_TYPE = U
NORAD_CAT_ID   = 15772
ELEMENT_SET_NO = 999
REV_AT_EPOCH   = 9952
BSTAR          = .67052E-4
MEAN_MOTION_DOT = .101E-5
MEAN_MOTION_DDOT = 0

CCSDS_OMM_VERS = 2.0
CREATION_DATE  = 
ORIGINATOR     = 

OBJECT_NAME    = SL-14 R/B
OBJECT_ID      = 1985-069B
CENTER_NAME    = EARTH
REF_FRAME      = TEME
TIME_SYSTEM    = UTC
MEAN_ELEMENT_THEORY = SGP/SGP4

EPOCH          = 2025-11-25T03:07:35.519808
MEAN_MOTION    = 14.86292619
ECCENTRICITY   = .0018941
INCLINATION    = 82.5248
RA_OF_ASC_NODE = 123.2578
ARG_OF_PERICENTER = 174.3133
MEAN_ANOMALY   = 185.8302

EPHEMERIS_TYPE = 0
CLASSIFICATION_TYPE = U
NORAD_CAT_ID   = 15945
ELEMENT_SET_NO = 999
REV_AT_EPOCH   = 15730
BSTAR          = .80043E-4
MEAN_MOTION_DOT = .731E-5
MEAN_MOTION_DDOT = 0

CCSDS_OMM_VERS = 2.0
CREATION_DATE  = 
ORIGINATOR     = 

OBJECT_NAME    = SL-16 R/B
OBJECT_ID      = 1985-097B
CENTER_NAME    = EARTH
REF_FRAME      = TEME
TIME_SYSTEM    = UTC
MEAN_ELEMENT_THEORY = SGP/SGP4

EPOCH          = 2025-11-25T03:01:26.336064
MEAN_MOTION    = 14.16582198
ECCENTRICITY   = .000572
INCLINATION    = 71.0040
RA_OF_ASC_NODE = 0.6864
ARG_OF_PERICENTER = 41.4700
MEAN_ANOMALY   = 19.0286

EPHEMERIS_TYPE = 0
CLASSIFICATION_TYPE = U
NORAD_CAT_ID   = 16182
ELEMENT_SET_NO = 999
REV_AT_EPOCH   = 7242
BSTAR          = .74543E-4
MEAN_MOTION_DOT = .101E-5
MEAN_MOTION_DDOT = 0

CCSDS_OMM_VERS = 2.0
CREATION_DATE  = 
ORIGINATOR     = 

OBJECT_NAME    = SL-14 R/B
OBJECT_ID      = 1986-006B
CENTER_NAME    = EARTH
REF_FRAME      = TEME
TIME_SYSTEM    = UTC
MEAN_ELEMENT_THEORY = SGP/SGP4

EPOCH          = 2025-11-25T03:11:08.944224
MEAN_MOTION    = 14.86636347
ECCENTRICITY   = .0075206
INCLINATION    = 82.5274
RA_OF_ASC_NODE = 358.1192
ARG_OF_PERICENTER = 259.0722
MEAN_ANOMALY   = 100.2026

EPHEMERIS_TYPE = 0
CLASSIFICATION_TYPE = U
NORAD_CAT_ID   = 16496
ELEMENT_SET_NO = 999
REV_AT_EPOCH   = 13367
BSTAR          = .89165E-4
MEAN_MOTION_DOT = .858E-5
MEAN_MOTION_DDOT = 0

CCSDS_OMM_VERS = 2.0
CREATION_DATE  = 
ORIGINATOR     = 

OBJECT_NAME    = COSMOS 1743
OBJECT_ID      = 1986-034A
CENTER_NAME    = EARTH
REF_FRAME      = TEME
TIME_SYSTEM    = UTC
MEAN_ELEMENT_THEORY = SGP/SGP4

EPOCH          = 2025-11-25T01:07:36.858432
MEAN_MOTION    = 15.50945786
ECCENTRICITY   = .0005586
INCLINATION    = 82.5353
RA_OF_ASC_NODE = 182.9499
ARG_OF_PERICENTER = 332.0559
MEAN_ANOMALY   = 28.0392

EPHEMERIS_TYPE = 0
CLASSIFICATION_TYPE = U
NORAD_CAT_ID   = 16719
ELEMENT_SET_NO = 999
REV_AT_EPOCH   = 16399
BSTAR          = .55346E-3
MEAN_MOTION_DOT = .32192E-3
MEAN_MOTION_DDOT = 0

