SL-3 R/B                
1 13403U 82079B   25329.07821400  .00006457  00000+0  26853-3 0  9998
2 13403  81.1462 316.4767 0026130 156.2717 203.9727 15.23304200361763
SL-14 R/B               
1 13553U 82092B   25329.03532882  .00000716  00000+0  77943-4 0  9997
2 13553  82.5690 239.2673 0018879 290.4298  80.0232 14.86528115313382
SL-3 R/B                
1 13819U 83010B   25328.93974075  .00016913  00000+0  38318-3 0  9993
2 13819  81.1028 130.3345 0018022  52.7597 307.5287 15.42798615341773
SL-3 R/B                
1 14208U 83075B   25329.06601029  .00013001  00000+0  37484-3 0  9996
2 14208  97.6106 324.9632 0021055 241.3528 118.5598 15.35633233314080
COSMOS 1536             
1 14699U 84013A   25329.12526132  .00007554  00000+0  32642-3 0  9998
2 14699  82.5463 211.6273 0013422 295.0767  64.9076 15.22243165256702
SL-14 R/B               
1 14820U 84027B   25329.11374988  .00000615  00000+0  67792-4 0  9994
2 14820  82.5413 343.0875 0016977 324.1126  35.8948 14.85846706232103
SL-8 R/B                
1 15483U 85006B   25329.09880352  .00000380  00000+0  13474-3 0  9998
2 15483  74.0452  93.5895 0017951  31.1331 141.3384 14.37705265138993
SL-12 R/B(2)            
1 15772U 85042D   25329.08981138  .00000101  00000+0  67052-4 0  9995
2 15772  71.1077 308.7077 0037592 287.4150 139.3449 14.21943370 99524
SL-14 R/B               
1 15945U 85069B   25329.13027222  .00000731  00000+0  80043-4 0  9991
2 15945  82.5248 123.2578 0018941 174.3133 185.8302 14.86292619157309
SL-16 R/B               
1 16182U 85097B   25329.12599926  .00000101  00000+0  74543-4 0  9999
2 16182  71.0040   0.6864 0005720  41.4700  19.0286 14.16582198 72422
SL-14 R/B               
1 16496U 86006B   25329.13274241  .00000858  00000+0  89165-4 0  9994
2 16496  82.5274 358.1192 0075206 259.0722 100.2026 14.86636347133671
COSMOS 1743             
1 16719U 86034A   25329.04695438  .00032192  00000+0  55346-3 0  9997
2 16719  82.5353 182.9499 0005586 332.0559  28.0392 15.50945786163997
